NORAD_CAT_ID,OBJECT_NAME,OBJECT_TYPE,EPOCH,MEAN_MOTION,ECCENTRICITY,INCLINATION,RA_OF_ASC_NODE,ARG_OF_PERICENTER,MEAN_ANOMALY,BSTAR,MEAN_MOTION_DOT,MEAN_MOTION_DDOT,TLE_LINE0,TLE_LINE1,TLE_LINE2,SEMIMAJOR_AXIS,PERIOD,APOGEE,PERIGEE,DECAYED
53533.0,STARLINK-4493,PAYLOAD,2022-12-19 09:00:19,15.08845608,0.0002348,53.2188,314.8026,44.2886,315.8294,0.00026368,3.911e-05,0.0,0 STARLINK-4493,1 53533U 22101G   22353.37522598  .00003911  00000-0  26368-3 0  9993,2 53533  53.2188 314.8026 0002348  44.2886 315.8294 15.08845608 18580,6917.863,95.437,541.3530000000002,538.104,0.0
53533.0,STARLINK-4493,PAYLOAD,2022-12-20 00:54:10,15.08843859,0.0002309,53.2186,311.8287,46.3899,313.7285,0.00020161,2.922e-05,0.0,0 STARLINK-4493,1 53533U 22101G   22354.03762713  .00002922  00000-0  20161-3 0  9998,2 53533  53.2186 311.8287 0002309  46.3899 313.7285 15.08843859 18682,6917.869000000002,95.437,541.331,538.136,0.0
53533.0,STARLINK-4493,PAYLOAD,2022-12-20 07:15:43,15.08860746,0.0002213,53.2184,310.6388,47.6495,312.4685,0.00078138,0.00012177,0.0,0 STARLINK-4493,1 53533U 22101G   22354.30258332  .00012177  00000-0  78138-3 0  9995,2 53533  53.2184 310.6388 0002213  47.6495 312.4685 15.08860746 18728,6917.816999999999,95.436,541.2130000000002,538.151,0.0
53533.0,STARLINK-4493,PAYLOAD,2022-12-21 00:44:58,15.08829914,0.0002041,53.2187,307.3682,53.99100000000001,306.1271,-4.0487e-05,-9.32e-06,0.0,0 STARLINK-4493,1 53533U 22101G   22355.03123313 -.00000932  00000-0 -40487-4 0  9991,2 53533  53.2187 307.3682 0002041  53.9910 306.1271 15.08829914 18837,6917.911,95.438,541.188,538.364,0.0
53533.0,STARLINK-4493,PAYLOAD,2022-12-21 07:06:31,15.08837711,0.0002024,53.2186,306.1786,57.2248,302.8939,0.00023641,3.476e-05,0.0,0 STARLINK-4493,1 53533U 22101G   22355.29619379  .00003476  00000-0  23641-3 0  9997,2 53533  53.2186 306.1786 0002024  57.2248 302.8939 15.08837711 18872,6917.887,95.438,541.153,538.352,0.0
53533.0,STARLINK-4493,PAYLOAD,2022-12-22 06:57:17,15.08850143,0.0001852,53.2183,301.7181,51.8972,308.2186,0.00050418,7.747e-05,0.0,0 STARLINK-4493,1 53533U 22101G   22356.28978938  .00007747  00000-0  50418-3 0  9993,2 53533  53.2183 301.7181 0001852  51.8972 308.2186 15.08850143 19027,6917.849,95.437,540.996,538.433,0.0
53533.0,STARLINK-4493,PAYLOAD,2022-12-22 13:18:50,15.08841464,0.000212,53.2189,300.5284,63.2667,296.8542,2.2348e-05,6.7e-07,0.0,0 STARLINK-4493,1 53533U 22101G   22356.55475224  .00000067  00000-0  22348-4 0  9993,2 53533  53.2189 300.5284 0002120  63.2667 296.8542 15.08841464 19069,6917.876,95.437,541.2080000000002,538.274,0.0
53533.0,STARLINK-4493,PAYLOAD,2022-12-23 05:12:42,15.08834835,0.0001788,53.2186,297.5555,59.0558,301.061,0.00025953,3.844e-05,0.0,0 STARLINK-4493,1 53533U 22101G   22357.21715587  .00003844  00000-0  25953-3 0  9996,2 53533  53.2186 297.5555 0001788  59.0558 301.0610 15.08834835 19163,6917.896,95.438,540.998,538.524,0.0
53533.0,STARLINK-4493,PAYLOAD,2022-12-23 13:09:38,15.08837443,0.0001884,53.2181,296.0681,57.0486,303.0687,0.00038795,5.891e-05,0.0,0 STARLINK-4493,1 53533U 22101G   22357.54835667  .00005891  00000-0  38795-3 0  9996,2 53533  53.2181 296.0681 0001884  57.0486 303.0687 15.08837443 19217,6917.888000000001,95.438,541.057,538.45,0.0
53533.0,STARLINK-4493,PAYLOAD,2022-12-23 19:31:10,15.08842494,0.000176,53.218,294.8795,57.5977,302.5185,0.00021764,3.178e-05,0.0,0 STARLINK-4493,1 53533U 22101G   22357.81331489  .00003178  00000-0  21764-3 0  9993,2 53533  53.2180 294.8795 0001760  57.5977 302.5185 15.08842494 19254,6917.873000000001,95.437,540.955,538.52,0.0
53533.0,STARLINK-4493,PAYLOAD,2022-12-24 05:03:28,15.08851332,0.0001828,53.2179,293.0949,58.0797,302.0373,0.00031378,4.711e-05,0.0,0 STARLINK-4493,1 53533U 22101G   22358.21074992  .00004711  00000-0  31378-3 0  9997,2 53533  53.2179 293.0949 0001828  58.0797 302.0373 15.08851332 19317,6917.846,95.437,540.975,538.446,0.0
53533.0,STARLINK-4493,PAYLOAD,2022-12-24 13:00:24,15.08845679,0.0001857,53.2176,291.6092,53.343,306.7732,0.00018184,2.608e-05,0.0,0 STARLINK-4493,1 53533U 22101G   22358.54195106  .00002608  00000-0  18184-3 0  9997,2 53533  53.2176 291.6092 0001857  53.3430 306.7732 15.08845679 19363,6917.863,95.437,541.013,538.443,0.0
53533.0,STARLINK-4493,PAYLOAD,2022-12-25 03:18:52,15.08846435,0.00017,53.2179,288.9327,54.4412,305.6739,0.00020181,2.926e-05,0.0,0 STARLINK-4493,1 53533U 22101G   22359.13811007  .00002926  00000-0  20181-3 0  9991,2 53533  53.2179 288.9327 0001700  54.4412 305.6739 15.08846435 19451,6917.861,95.437,540.9019999999998,538.55,0.0
53533.0,STARLINK-4493,PAYLOAD,2022-12-25 19:12:43,15.08844283,0.0001761999999999,53.2175,285.9597,51.9816,308.1335,3.3264e-05,2.41e-06,0.0,0 STARLINK-4493,1 53533U 22101G   22359.80050923  .00000241  00000-0  33264-4 0  9992,2 53533  53.2175 285.9597 0001762  51.9816 308.1335 15.08844283 19551,6917.8669999999975,95.437,540.951,538.513,0.0
53533.0,STARLINK-4493,PAYLOAD,2022-12-25 20:48:07,15.08831679,0.0001763,53.2171,285.6617,57.1326,302.9836,-0.00019094,-3.325e-05,0.0,0 STARLINK-4493,1 53533U 22101G   22359.86675492 -.00003325  00000-0 -19094-3 0  9994,2 53533  53.2171 285.6617 0001763  57.1326 302.9836 15.08831679 19566,6917.906,95.438,540.99,538.5509999999998,0.0
53533.0,STARLINK-4493,PAYLOAD,2022-12-26 01:34:17,15.08832748,0.000176,53.2175,284.7697,56.6574,303.4586,-0.0001418,-2.544e-05,0.0,0 STARLINK-4493,1 53533U 22101G   22360.06547708 -.00002544  00000-0 -14180-3 0  9999,2 53533  53.2175 284.7697 0001760  56.6574 303.4586 15.08832748 19593,6917.903,95.438,540.985,538.55,0.0
53533.0,STARLINK-4493,PAYLOAD,2022-12-26 12:41:58,15.08846711,0.0001771,53.2181,282.6879,57.9651,302.1513,-5.6114e-06,-3.77e-06,0.0,0 STARLINK-4493,1 53533U 22101G   22360.52915157 -.00000377  00000-0 -56114-5 0  9994,2 53533  53.2181 282.6879 0001771  57.9651 302.1513 15.08846711 19660,6917.86,95.437,540.95,538.5,0.0
53533.0,STARLINK-4493,PAYLOAD,2022-12-26 17:28:07,15.08854462,0.0001815,53.2181,281.7961,54.7942,305.3219,-4.5775e-05,-1.017e-05,0.0,0 STARLINK-4493,1 53533U 22101G   22360.72786615 -.00001017  00000-0 -45775-4 0  9993,2 53533  53.2181 281.7961 0001815  54.7942 305.3219 15.08854462 19692,6917.8359999999975,95.437,540.957,538.446,0.0
53533.0,STARLINK-4493,PAYLOAD,2022-12-27 01:25:04,15.0883331,0.0001718,53.2182,280.3096,56.7035,303.4122,0.00023104,3.39e-05,0.0,0 STARLINK-4493,1 53533U 22101G   22361.05907689  .00003390  00000-0  23104-3 0  9991,2 53533  53.2182 280.3096 0001718  56.7035 303.4122 15.08833310 19741,6917.901,95.438,540.9540000000002,538.577,0.0
53533.0,STARLINK-4493,PAYLOAD,2022-12-27 04:35:50,15.08845483,0.0001753,53.2184,279.7143,55.9178,304.198,6.3879e-05,7.29e-06,0.0,0 STARLINK-4493,1 53533U 22101G   22361.19155108  .00000729  00000-0  63879-4 0  9994,2 53533  53.2184 279.7143 0001753  55.9178 304.1980 15.08845483 19762,6917.864000000001,95.437,540.941,538.516,0.0
53533.0,STARLINK-4493,PAYLOAD,2022-12-27 18:54:17,15.08851532,0.0001761999999999,53.2184,277.0386,55.2538,304.862,0.00029541,4.418e-05,0.0,0 STARLINK-4493,1 53533U 22101G   22361.78770078  .00004418  00000-0  29541-3 0  9994,2 53533  53.2184 277.0386 0001762  55.2538 304.8620 15.08851532 19855,6917.845,95.437,540.929,538.491,0.0
53533.0,STARLINK-4493,PAYLOAD,2022-12-27 23:40:27,15.08855546,0.0001791,53.2175,276.1469,55.0203,305.0957,0.00037951,5.76e-05,0.0,0 STARLINK-4493,1 53533U 22101G   22361.98642466  .00005760  00000-0  37951-3 0  9990,2 53533  53.2175 276.1469 0001791  55.0203 305.0957 15.08855546 19884,6917.833000000001,95.437,540.937,538.4590000000002,0.0
53533.0,STARLINK-4493,PAYLOAD,2022-12-29 04:17:23,15.08833829,0.0001796,53.2168,270.7943,53.2853,306.8304,-0.00027646,-4.685e-05,0.0,0 STARLINK-4493,1 53533U 22101G   22363.17874750 -.00004685  00000-0 -27646-3 0  9993,2 53533  53.2168 270.7943 0001796  53.2853 306.8304 15.08833829 20066,6917.899,95.438,541.007,538.5219999999998,0.0
53533.0,STARLINK-4493,PAYLOAD,2022-12-29 10:38:56,15.08823126,0.0001915,53.2172,269.6041,53.7798,306.3371,-0.00038887,-6.469e-05,0.0,0 STARLINK-4493,1 53533U 22101G   22363.44371464 -.00006469  00000-0 -38887-3 0  9998,2 53533  53.2172 269.6041 0001915  53.7798 306.3371 15.08823126 20106,6917.932,95.439,541.122,538.472,0.0
53533.0,STARLINK-4493,PAYLOAD,2022-12-29 17:00:30,15.08830303,0.0001744,53.2174,268.4139,49.5009,310.6135,-0.00013855,-2.492e-05,0.0,0 STARLINK-4493,1 53533U 22101G   22363.70868401 -.00002492  00000-0 -13855-3 0  9999,2 53533  53.2174 268.4139 0001744  49.5009 310.6135 15.08830303 20146,6917.91,95.438,540.982,538.569,0.0
53533.0,STARLINK-4493,PAYLOAD,2022-12-30 02:32:48,15.0883574,0.0001884,53.2175,266.63,51.6037,308.5124,-9.4272e-05,-1.788e-05,0.0,0 STARLINK-4493,1 53533U 22101G   22364.10611945 -.00001788  00000-0 -94272-4 0  9993,2 53533  53.2175 266.6300 0001884  51.6037 308.5124 15.08835740 20208,6917.893,95.438,541.062,538.455,0.0
53533.0,STARLINK-4493,PAYLOAD,2022-12-30 10:29:43,15.08846124,0.0002038,53.2177,265.1434,46.9284,313.1879,9.6845e-06,-1.34e-06,0.0,0 STARLINK-4493,1 53533U 22101G   22364.43731100 -.00000134  00000-0  96845-5 0  9997,2 53533  53.2177 265.1434 0002038  46.9284 313.1879 15.08846124 20257,6917.861999999999,95.437,541.137,538.317,0.0
53533.0,STARLINK-4493,PAYLOAD,2022-12-31 02:23:34,15.08874526,0.0001629,53.2162,262.17,50.6973,309.4164,0.0011447,0.00017994,0.0,0 STARLINK-4493,1 53533U 22101G   22365.09970691  .00017994  00000-0  11447-2 0  9993,2 53533  53.2162 262.1700 0001629  50.6973 309.4164 15.08874526 20359,6917.775,95.435,540.7669999999998,538.513,0.0
53533.0,STARLINK-4493,PAYLOAD,2023-01-01 02:14:21,15.08843004,0.0002213,53.2167,257.7102,51.4773,308.6417,-0.00012276,-2.242e-05,0.0,0 STARLINK-4493,1 53533U 22101G   23001.09330132 -.00002242  00000-0 -12276-3 0  9995,2 53533  53.2167 257.7102 0002213  51.4773 308.6417 15.08843004 20503,6917.871,95.437,541.2669999999998,538.205,0.0
